{
  "links" : {
    "next" : "https://api.nasa.gov/neo/rest/v1/feed?start_date=1999-07-23&end_date=1999-07-23&detailed=true&api_key=t0TVs3DtDT2H8Oy2Zy8m2eVrNsAVKAexjcZXUckd",
    "prev" : "https://api.nasa.gov/neo/rest/v1/feed?start_date=1999-07-21&end_date=1999-07-21&detailed=true&api_key=t0TVs3DtDT2H8Oy2Zy8m2eVrNsAVKAexjcZXUckd",
    "self" : "https://api.nasa.gov/neo/rest/v1/feed?start_date=1999-07-22&end_date=1999-07-22&detailed=true&api_key=t0TVs3DtDT2H8Oy2Zy8m2eVrNsAVKAexjcZXUckd"
  },
  "element_count" : 4,
  "near_earth_objects" : {
    "1999-07-22" : [ {
      "links" : {
        "self" : "https://api.nasa.gov/neo/rest/v1/neo/2277810?api_key=t0TVs3DtDT2H8Oy2Zy8m2eVrNsAVKAexjcZXUckd"
      },
      "neo_reference_id" : "2277810",
      "name" : "277810 (2006 FV35)",
      "nasa_jpl_url" : "http://ssd.jpl.nasa.gov/sbdb.cgi?sstr=2277810",
      "absolute_magnitude_h" : 21.8,
      "estimated_diameter" : {
        "kilometers" : {
          "estimated_diameter_min" : 0.1160259082,
          "estimated_diameter_max" : 0.2594418179
        },
        "meters" : {
          "estimated_diameter_min" : 116.0259082094,
          "estimated_diameter_max" : 259.4418179074
        },
        "miles" : {
          "estimated_diameter_min" : 0.0720951346,
          "estimated_diameter_max" : 0.1612096218
        },
        "feet" : {
          "estimated_diameter_min" : 380.6624406898,
          "estimated_diameter_max" : 851.1870938635
        }
      },
      "is_potentially_hazardous_asteroid" : false,
      "close_approach_data" : [ {
        "close_approach_date" : "1999-07-22",
        "epoch_date_close_approach" : 932626800000,
        "relative_velocity" : {
          "kilometers_per_second" : "11.1646270348",
          "kilometers_per_hour" : "40192.6573253236",
          "miles_per_hour" : "24974.1542141712"
        },
        "miss_distance" : {
          "astronomical" : "0.3347972409",
          "lunar" : "130.2361297607",
          "kilometers" : "50084952",
          "miles" : "31121348"
        },
        "orbiting_body" : "Earth"
      } ],
      "orbital_data" : {
        "orbit_id" : "51",
        "orbit_determination_date" : "2017-04-06 09:24:24",
        "orbit_uncertainty" : "1",
        "minimum_orbit_intersection" : ".104736",
        "jupiter_tisserand_invariant" : "6.003",
        "epoch_osculation" : "2458000.5",
        "eccentricity" : ".3775352983208624",
        "semi_major_axis" : "1.001342942840337",
        "inclination" : "7.104126563177385",
        "ascending_node_longitude" : "179.5057827726986",
        "orbital_period" : "365.9929240029879",
        "perihelion_distance" : ".6233006361936202",
        "perihelion_argument" : "170.8521652770838",
        "aphelion_distance" : "1.379385249487054",
        "perihelion_time" : "2457994.548482506686",
        "mean_anomaly" : "5.854064811306019",
        "mean_motion" : ".983625574130119",
        "equinox" : "J2000"
      }
    }, {
      "links" : {
        "self" : "https://api.nasa.gov/neo/rest/v1/neo/3591721?api_key=t0TVs3DtDT2H8Oy2Zy8m2eVrNsAVKAexjcZXUckd"
      },
      "neo_reference_id" : "3591721",
      "name" : "(2011 YH28)",
      "nasa_jpl_url" : "http://ssd.jpl.nasa.gov/sbdb.cgi?sstr=3591721",
      "absolute_magnitude_h" : 20.4,
      "estimated_diameter" : {
        "kilometers" : {
          "estimated_diameter_min" : 0.2210828104,
          "estimated_diameter_max" : 0.4943561926
        },
        "meters" : {
          "estimated_diameter_min" : 221.0828103591,
          "estimated_diameter_max" : 494.3561926196
        },
        "miles" : {
          "estimated_diameter_min" : 0.137374447,
          "estimated_diameter_max" : 0.3071786018
        },
        "feet" : {
          "estimated_diameter_min" : 725.3373275385,
          "estimated_diameter_max" : 1621.9035709942
        }
      },
      "is_potentially_hazardous_asteroid" : true,
      "close_approach_data" : [ {
        "close_approach_date" : "1999-07-22",
        "epoch_date_close_approach" : 932626800000,
        "relative_velocity" : {
          "kilometers_per_second" : "27.1207690246",
          "kilometers_per_hour" : "97634.7684887371",
          "miles_per_hour" : "60666.4482312378"
        },
        "miss_distance" : {
          "astronomical" : "0.3086970261",
          "lunar" : "120.0831375122",
          "kilometers" : "46180416",
          "miles" : "28695180"
        },
        "orbiting_body" : "Earth"
      } ],
      "orbital_data" : {
        "orbit_id" : "16",
        "orbit_determination_date" : "2017-04-06 08:51:41",
        "orbit_uncertainty" : "5",
        "minimum_orbit_intersection" : ".0132739",
        "jupiter_tisserand_invariant" : "2.968",
        "epoch_osculation" : "2458000.5",
        "eccentricity" : ".7122646817882862",
        "semi_major_axis" : "2.625573428193747",
        "inclination" : "8.621482238812026",
        "ascending_node_longitude" : "285.5515175601677",
        "orbital_period" : "1553.941551503066",
        "perihelion_distance" : ".7554702058495483",
        "perihelion_argument" : "287.3213231586232",
        "aphelion_distance" : "4.495676650537946",
        "perihelion_time" : "2457557.445452970657",
        "mean_anomaly" : "102.6419795366729",
        "mean_motion" : ".2316689451104428",
        "equinox" : "J2000"
      }
    }, {
      "links" : {
        "self" : "https://api.nasa.gov/neo/rest/v1/neo/3606253?api_key=t0TVs3DtDT2H8Oy2Zy8m2eVrNsAVKAexjcZXUckd"
      },
      "neo_reference_id" : "3606253",
      "name" : "(2012 OQ)",
      "nasa_jpl_url" : "http://ssd.jpl.nasa.gov/sbdb.cgi?sstr=3606253",
      "absolute_magnitude_h" : 21.9,
      "estimated_diameter" : {
        "kilometers" : {
          "estimated_diameter_min" : 0.1108038821,
          "estimated_diameter_max" : 0.2477650126
        },
        "meters" : {
          "estimated_diameter_min" : 110.8038821264,
          "estimated_diameter_max" : 247.7650126055
        },
        "miles" : {
          "estimated_diameter_min" : 0.068850319,
          "estimated_diameter_max" : 0.1539539936
        },
        "feet" : {
          "estimated_diameter_min" : 363.5298086356,
          "estimated_diameter_max" : 812.8773639568
        }
      },
      "is_potentially_hazardous_asteroid" : true,
      "close_approach_data" : [ {
        "close_approach_date" : "1999-07-22",
        "epoch_date_close_approach" : 932626800000,
        "relative_velocity" : {
          "kilometers_per_second" : "13.5788065779",
          "kilometers_per_hour" : "48883.7036804854",
          "miles_per_hour" : "30374.4324341327"
        },
        "miss_distance" : {
          "astronomical" : "0.0554214505",
          "lunar" : "21.5589447021",
          "kilometers" : "8290931",
          "miles" : "5151745.5"
        },
        "orbiting_body" : "Earth"
      } ],
      "orbital_data" : {
        "orbit_id" : "30",
        "orbit_determination_date" : "2017-04-27 06:18:57",
        "orbit_uncertainty" : "1",
        "minimum_orbit_intersection" : ".0148263",
        "jupiter_tisserand_invariant" : "5.243",
        "epoch_osculation" : "2458000.5",
        "eccentricity" : ".3951098984906422",
        "semi_major_axis" : "1.190580920621669",
        "inclination" : "7.098165086367375",
        "ascending_node_longitude" : "294.1073102857853",
        "orbital_period" : "474.5006424198045",
        "perihelion_distance" : ".7201706139299457",
        "perihelion_argument" : "100.6444787193682",
        "aphelion_distance" : "1.660991227313392",
        "perihelion_time" : "2458094.330200540089",
        "mean_anomaly" : "288.8117461292139",
        "mean_motion" : ".7586923342487227",
        "equinox" : "J2000"
      }
    }, {
      "links" : {
        "self" : "https://api.nasa.gov/neo/rest/v1/neo/3674010?api_key=t0TVs3DtDT2H8Oy2Zy8m2eVrNsAVKAexjcZXUckd"
      },
      "neo_reference_id" : "3674010",
      "name" : "(2014 MV18)",
      "nasa_jpl_url" : "http://ssd.jpl.nasa.gov/sbdb.cgi?sstr=3674010",
      "absolute_magnitude_h" : 23.7,
      "estimated_diameter" : {
        "kilometers" : {
          "estimated_diameter_min" : 0.0483676488,
          "estimated_diameter_max" : 0.1081533507
        },
        "meters" : {
          "estimated_diameter_min" : 48.3676488219,
          "estimated_diameter_max" : 108.1533506775
        },
        "miles" : {
          "estimated_diameter_min" : 0.0300542543,
          "estimated_diameter_max" : 0.0672033557
        },
        "feet" : {
          "estimated_diameter_min" : 158.6865169607,
          "estimated_diameter_max" : 354.8338390368
        }
      },
      "is_potentially_hazardous_asteroid" : false,
      "close_approach_data" : [ {
        "close_approach_date" : "1999-07-22",
        "epoch_date_close_approach" : 932626800000,
        "relative_velocity" : {
          "kilometers_per_second" : "10.1500641785",
          "kilometers_per_hour" : "36540.2310426443",
          "miles_per_hour" : "22704.6785609142"
        },
        "miss_distance" : {
          "astronomical" : "0.1645477505",
          "lunar" : "64.0090789795",
          "kilometers" : "24615994",
          "miles" : "15295670"
        },
        "orbiting_body" : "Earth"
      } ],
      "orbital_data" : {
        "orbit_id" : "13",
        "orbit_determination_date" : "2017-04-06 08:39:56",
        "orbit_uncertainty" : "6",
        "minimum_orbit_intersection" : ".0106243",
        "jupiter_tisserand_invariant" : "7.239",
        "epoch_osculation" : "2458000.5",
        "eccentricity" : ".2828996523336414",
        "semi_major_axis" : ".8006767527083204",
        "inclination" : "10.20502093341106",
        "ascending_node_longitude" : "101.7742149856689",
        "orbital_period" : "261.6882696786462",
        "perihelion_distance" : ".5741655777355076",
        "perihelion_argument" : "358.574446926997",
        "aphelion_distance" : "1.027187927681133",
        "perihelion_time" : "2458019.703969511423",
        "mean_anomaly" : "333.5814332350399",
        "mean_motion" : "1.375682602976743",
        "equinox" : "J2000"
      }
    } ]
  }
}